{
"type": "FeatureCollection",
"name": "ourairports-trnc",
"crs": { "type": "name", "properties": { "name": "urn:ogc:def:crs:OGC:1.3:CRS84" } },
"features": [
{ "type": "Feature", "properties": { "id": 44645, "ident": "CY-0001", "type": "small_airport", "name": "Lakatamia Airfield", "latitude_deg": 35.106384, "longitude_deg": 33.321304, "elevation_ft": null, "continent": "AS", "iso_country": "CY", "iso_region": "CY-02", "municipality": null, "scheduled_service": false, "icao_code": null, "iata_code": null, "gps_code": null, "local_code": null, "home_link": null, "wikipedia_link": null, "keywords": null }, "geometry": { "type": "Point", "coordinates": [ 33.321304, 35.106384, 0.0 ] } },
{ "type": "Feature", "properties": { "id": 44647, "ident": "CY-0003", "type": "small_airport", "name": "Pınarbaşı Air Base", "latitude_deg": 35.276018, "longitude_deg": 33.267503, "elevation_ft": null, "continent": "AS", "iso_country": "CY", "iso_region": "CY-01", "municipality": "Ağırdağ", "scheduled_service": false, "icao_code": null, "iata_code": null, "gps_code": null, "local_code": null, "home_link": null, "wikipedia_link": null, "keywords": "Agirda" }, "geometry": { "type": "Point", "coordinates": [ 33.267503, 35.276018, 0.0 ] } },
{ "type": "Feature", "properties": { "id": 328184, "ident": "CY-0008", "type": "closed", "name": "RAF Ayios Nikolaos Air Base", "latitude_deg": 35.083178, "longitude_deg": 33.900432, "elevation_ft": null, "continent": "AS", "iso_country": "CY", "iso_region": "CY-XX", "municipality": "Ayios Nikolaos", "scheduled_service": false, "icao_code": null, "iata_code": null, "gps_code": null, "local_code": null, "home_link": null, "wikipedia_link": null, "keywords": null }, "geometry": { "type": "Point", "coordinates": [ 33.900432, 35.083178, 0.0 ] } },
{ "type": "Feature", "properties": { "id": 343524, "ident": "CY-0010", "type": "heliport", "name": "Ayios Nikolaos South Heliport", "latitude_deg": 35.08695, "longitude_deg": 33.89467, "elevation_ft": 102, "continent": "AS", "iso_country": "CY", "iso_region": "CY-XX", "municipality": "Ayios Nikolaos", "scheduled_service": false, "icao_code": null, "iata_code": null, "gps_code": null, "local_code": null, "home_link": null, "wikipedia_link": null, "keywords": null }, "geometry": { "type": "Point", "coordinates": [ 33.89467, 35.08695, 102.0 ] } },
{ "type": "Feature", "properties": { "id": 343525, "ident": "CY-0011", "type": "heliport", "name": "Ayios Nikolaos North Heliport", "latitude_deg": 35.09067, "longitude_deg": 33.88774, "elevation_ft": 105, "continent": "AS", "iso_country": "CY", "iso_region": "CY-XX", "municipality": "Ayios Nikolaos", "scheduled_service": false, "icao_code": null, "iata_code": null, "gps_code": null, "local_code": null, "home_link": null, "wikipedia_link": null, "keywords": null }, "geometry": { "type": "Point", "coordinates": [ 33.88774, 35.09067, 105.0 ] } },
{ "type": "Feature", "properties": { "id": 347283, "ident": "CY-0012", "type": "heliport", "name": "UNFICYP OP08 Heliport", "latitude_deg": 35.177331, "longitude_deg": 32.700825, "elevation_ft": null, "continent": "AS", "iso_country": "CY", "iso_region": "CY-02", "municipality": null, "scheduled_service": false, "icao_code": null, "iata_code": null, "gps_code": null, "local_code": null, "home_link": null, "wikipedia_link": null, "keywords": null }, "geometry": { "type": "Point", "coordinates": [ 32.700825, 35.177331, 0.0 ] } },
{ "type": "Feature", "properties": { "id": 347284, "ident": "CY-0013", "type": "heliport", "name": "Mosfili helipad", "latitude_deg": 35.182441, "longitude_deg": 32.635634, "elevation_ft": null, "continent": "AS", "iso_country": "CY", "iso_region": "CY-02", "municipality": null, "scheduled_service": false, "icao_code": null, "iata_code": null, "gps_code": null, "local_code": null, "home_link": null, "wikipedia_link": null, "keywords": null }, "geometry": { "type": "Point", "coordinates": [ 32.635634, 35.182441, 0.0 ] } },
{ "type": "Feature", "properties": { "id": 347285, "ident": "CY-0014", "type": "heliport", "name": "UNFICYP OP03 Heliport", "latitude_deg": 35.175495, "longitude_deg": 32.621905, "elevation_ft": null, "continent": "AS", "iso_country": "CY", "iso_region": "CY-02", "municipality": null, "scheduled_service": false, "icao_code": null, "iata_code": null, "gps_code": null, "local_code": null, "home_link": null, "wikipedia_link": null, "keywords": null }, "geometry": { "type": "Point", "coordinates": [ 32.621905, 35.175495, 0.0 ] } },
{ "type": "Feature", "properties": { "id": 347286, "ident": "CY-0015", "type": "heliport", "name": "Erenköy Helipad", "latitude_deg": 35.186998, "longitude_deg": 32.615538, "elevation_ft": null, "continent": "AS", "iso_country": "CY", "iso_region": "CY-02", "municipality": "Kokkina / Erenköy", "scheduled_service": false, "icao_code": null, "iata_code": null, "gps_code": null, "local_code": null, "home_link": null, "wikipedia_link": null, "keywords": null }, "geometry": { "type": "Point", "coordinates": [ 32.615538, 35.186998, 0.0 ] } },
{ "type": "Feature", "properties": { "id": 347287, "ident": "CY-0016", "type": "heliport", "name": "UNFICYP Helipad", "latitude_deg": 35.111441, "longitude_deg": 32.79351, "elevation_ft": null, "continent": "AS", "iso_country": "CY", "iso_region": "CY-02", "municipality": null, "scheduled_service": false, "icao_code": null, "iata_code": null, "gps_code": null, "local_code": null, "home_link": null, "wikipedia_link": null, "keywords": null }, "geometry": { "type": "Point", "coordinates": [ 32.79351, 35.111441, 0.0 ] } },
{ "type": "Feature", "properties": { "id": 347290, "ident": "CY-0019", "type": "heliport", "name": "UNFICYP OP22 Heliport", "latitude_deg": 35.104405, "longitude_deg": 32.874977, "elevation_ft": null, "continent": "AS", "iso_country": "CY", "iso_region": "CY-02", "municipality": null, "scheduled_service": false, "icao_code": null, "iata_code": null, "gps_code": null, "local_code": null, "home_link": null, "wikipedia_link": null, "keywords": null }, "geometry": { "type": "Point", "coordinates": [ 32.874977, 35.104405, 0.0 ] } },
{ "type": "Feature", "properties": { "id": 347292, "ident": "CY-0020", "type": "heliport", "name": "UNFICYP OP32 Heliport", "latitude_deg": 35.156876, "longitude_deg": 33.02405, "elevation_ft": null, "continent": "AS", "iso_country": "CY", "iso_region": "CY-02", "municipality": "Astromeritis", "scheduled_service": false, "icao_code": null, "iata_code": null, "gps_code": null, "local_code": null, "home_link": null, "wikipedia_link": null, "keywords": null }, "geometry": { "type": "Point", "coordinates": [ 33.02405, 35.156876, 0.0 ] } },
{ "type": "Feature", "properties": { "id": 347293, "ident": "CY-0021", "type": "heliport", "name": "Yukari Bostanci Border Post Heliport", "latitude_deg": 35.156621, "longitude_deg": 33.018651, "elevation_ft": null, "continent": "AS", "iso_country": "CY", "iso_region": "CY-02", "municipality": "Yukari Bostanci", "scheduled_service": false, "icao_code": null, "iata_code": null, "gps_code": null, "local_code": null, "home_link": null, "wikipedia_link": null, "keywords": null }, "geometry": { "type": "Point", "coordinates": [ 33.018651, 35.156621, 0.0 ] } },
{ "type": "Feature", "properties": { "id": 347294, "ident": "CY-0022", "type": "heliport", "name": "UNFICYP Camp Roca Helipad", "latitude_deg": 35.13614, "longitude_deg": 32.837374, "elevation_ft": null, "continent": "AS", "iso_country": "CY", "iso_region": "CY-02", "municipality": "Karavostasi / Gemikonağı", "scheduled_service": false, "icao_code": null, "iata_code": null, "gps_code": null, "local_code": null, "home_link": null, "wikipedia_link": null, "keywords": null }, "geometry": { "type": "Point", "coordinates": [ 32.837374, 35.13614, 0.0 ] } },
{ "type": "Feature", "properties": { "id": 347300, "ident": "CY-0023", "type": "heliport", "name": "Gaziveren Heliport", "latitude_deg": 35.167112, "longitude_deg": 32.897665, "elevation_ft": null, "continent": "AS", "iso_country": "CY", "iso_region": "CY-02", "municipality": "Gaziveren / Kazivera", "scheduled_service": false, "icao_code": null, "iata_code": null, "gps_code": null, "local_code": null, "home_link": null, "wikipedia_link": null, "keywords": null }, "geometry": { "type": "Point", "coordinates": [ 32.897665, 35.167112, 0.0 ] } },
{ "type": "Feature", "properties": { "id": 347301, "ident": "CY-0024", "type": "heliport", "name": "Yeşilyurt helipad", "latitude_deg": 35.155423, "longitude_deg": 32.888972, "elevation_ft": null, "continent": "AS", "iso_country": "CY", "iso_region": "CY-02", "municipality": "Yeşilyurt / Pentageia", "scheduled_service": false, "icao_code": null, "iata_code": null, "gps_code": null, "local_code": null, "home_link": null, "wikipedia_link": null, "keywords": null }, "geometry": { "type": "Point", "coordinates": [ 32.888972, 35.155423, 0.0 ] } },
{ "type": "Feature", "properties": { "id": 347302, "ident": "CY-0025", "type": "closed", "name": "Güneşköy helipad", "latitude_deg": 35.195038, "longitude_deg": 32.932524, "elevation_ft": null, "continent": "AS", "iso_country": "CY", "iso_region": "CY-02", "municipality": "Nikitas / Güneşköy", "scheduled_service": false, "icao_code": null, "iata_code": null, "gps_code": null, "local_code": null, "home_link": null, "wikipedia_link": null, "keywords": null }, "geometry": { "type": "Point", "coordinates": [ 32.932524, 35.195038, 0.0 ] } },
{ "type": "Feature", "properties": { "id": 347303, "ident": "CY-0026", "type": "heliport", "name": "Sadrazamköy heliport", "latitude_deg": 35.383494, "longitude_deg": 32.938376, "elevation_ft": null, "continent": "AS", "iso_country": "CY", "iso_region": "CY-01", "municipality": "Livera / Sadrazamköy", "scheduled_service": false, "icao_code": null, "iata_code": null, "gps_code": null, "local_code": null, "home_link": null, "wikipedia_link": null, "keywords": null }, "geometry": { "type": "Point", "coordinates": [ 32.938376, 35.383494, 0.0 ] } },
{ "type": "Feature", "properties": { "id": 347304, "ident": "CY-0027", "type": "heliport", "name": "Çamlıbel heliport", "latitude_deg": 35.314348, "longitude_deg": 33.064473, "elevation_ft": null, "continent": "AS", "iso_country": "CY", "iso_region": "CY-01", "municipality": "Çamlıbel / Myrtou", "scheduled_service": false, "icao_code": null, "iata_code": null, "gps_code": null, "local_code": null, "home_link": null, "wikipedia_link": null, "keywords": null }, "geometry": { "type": "Point", "coordinates": [ 33.064473, 35.314348, 0.0 ] } },
{ "type": "Feature", "properties": { "id": 347305, "ident": "CY-0028", "type": "heliport", "name": "Girne Heliport", "latitude_deg": 35.326861, "longitude_deg": 33.322861, "elevation_ft": null, "continent": "AS", "iso_country": "CY", "iso_region": "CY-01", "municipality": "Girne / Kyrenia", "scheduled_service": false, "icao_code": null, "iata_code": null, "gps_code": null, "local_code": null, "home_link": null, "wikipedia_link": null, "keywords": null }, "geometry": { "type": "Point", "coordinates": [ 33.322861, 35.326861, 0.0 ] } },
{ "type": "Feature", "properties": { "id": 347306, "ident": "CY-0029", "type": "heliport", "name": "Karaman Heliport", "latitude_deg": 35.310436, "longitude_deg": 33.289049, "elevation_ft": null, "continent": "AS", "iso_country": "CY", "iso_region": "CY-01", "municipality": "Karaman / Karmi", "scheduled_service": false, "icao_code": null, "iata_code": null, "gps_code": null, "local_code": null, "home_link": null, "wikipedia_link": null, "keywords": null }, "geometry": { "type": "Point", "coordinates": [ 33.289049, 35.310436, 0.0 ] } },
{ "type": "Feature", "properties": { "id": 347307, "ident": "CY-0030", "type": "heliport", "name": "UNFICYP OP51 Helipad", "latitude_deg": 35.172538, "longitude_deg": 33.31455, "elevation_ft": null, "continent": "AS", "iso_country": "CY", "iso_region": "CY-02", "municipality": "Agios Dometios", "scheduled_service": false, "icao_code": null, "iata_code": null, "gps_code": null, "local_code": null, "home_link": null, "wikipedia_link": null, "keywords": null }, "geometry": { "type": "Point", "coordinates": [ 33.31455, 35.172538, 0.0 ] } },
{ "type": "Feature", "properties": { "id": 347308, "ident": "CY-0031", "type": "heliport", "name": "Metehan Helipad", "latitude_deg": 35.176511, "longitude_deg": 33.308935, "elevation_ft": null, "continent": "AS", "iso_country": "CY", "iso_region": "CY-02", "municipality": "Metehan / Agios Dometios", "scheduled_service": false, "icao_code": null, "iata_code": null, "gps_code": null, "local_code": null, "home_link": null, "wikipedia_link": null, "keywords": null }, "geometry": { "type": "Point", "coordinates": [ 33.308935, 35.176511, 0.0 ] } },
{ "type": "Feature", "properties": { "id": 347310, "ident": "CY-0032", "type": "heliport", "name": "UNFICYP Nicosia Airport Heliport", "latitude_deg": 35.145962, "longitude_deg": 33.283306, "elevation_ft": 722, "continent": "AS", "iso_country": "CY", "iso_region": "CY-02", "municipality": "Lakatamia", "scheduled_service": false, "icao_code": "LCNC", "iata_code": null, "gps_code": "LCNC", "local_code": null, "home_link": null, "wikipedia_link": "https://en.wikipedia.org/wiki/Nicosia_International_Airport", "keywords": null }, "geometry": { "type": "Point", "coordinates": [ 33.283306, 35.145962, 722.0 ] } },
{ "type": "Feature", "properties": { "id": 347311, "ident": "CY-0033", "type": "heliport", "name": "Yakın Doğu Üniversitesi Helipad", "latitude_deg": 35.228454, "longitude_deg": 33.33049, "elevation_ft": null, "continent": "AS", "iso_country": "CY", "iso_region": "CY-02", "municipality": "Ortaköy / Ortakioi", "scheduled_service": false, "icao_code": null, "iata_code": null, "gps_code": null, "local_code": null, "home_link": null, "wikipedia_link": null, "keywords": null }, "geometry": { "type": "Point", "coordinates": [ 33.33049, 35.228454, 0.0 ] } },
{ "type": "Feature", "properties": { "id": 347312, "ident": "CY-0034", "type": "heliport", "name": "Ortaköy Heliport", "latitude_deg": 35.195458, "longitude_deg": 33.33966, "elevation_ft": null, "continent": "AS", "iso_country": "CY", "iso_region": "CY-02", "municipality": "Ortaköy / Ortakioi", "scheduled_service": false, "icao_code": null, "iata_code": null, "gps_code": null, "local_code": null, "home_link": null, "wikipedia_link": null, "keywords": null }, "geometry": { "type": "Point", "coordinates": [ 33.33966, 35.195458, 0.0 ] } },
{ "type": "Feature", "properties": { "id": 347314, "ident": "CY-0035", "type": "heliport", "name": "UNFICYP OP86 Heliport", "latitude_deg": 35.175556, "longitude_deg": 33.408496, "elevation_ft": null, "continent": "AS", "iso_country": "CY", "iso_region": "CY-02", "municipality": "Sopaz", "scheduled_service": false, "icao_code": null, "iata_code": null, "gps_code": null, "local_code": null, "home_link": null, "wikipedia_link": null, "keywords": null }, "geometry": { "type": "Point", "coordinates": [ 33.408496, 35.175556, 0.0 ] } },
{ "type": "Feature", "properties": { "id": 347315, "ident": "CY-0036", "type": "heliport", "name": "UNFICYP OP91 Heliport", "latitude_deg": 35.112458, "longitude_deg": 33.455741, "elevation_ft": null, "continent": "AS", "iso_country": "CY", "iso_region": "CY-02", "municipality": "Geri", "scheduled_service": false, "icao_code": null, "iata_code": null, "gps_code": null, "local_code": null, "home_link": null, "wikipedia_link": null, "keywords": null }, "geometry": { "type": "Point", "coordinates": [ 33.455741, 35.112458, 0.0 ] } },
{ "type": "Feature", "properties": { "id": 347340, "ident": "CY-0045", "type": "heliport", "name": "UNFICYP OP138 Heliport", "latitude_deg": 35.072159, "longitude_deg": 33.861347, "elevation_ft": null, "continent": "AS", "iso_country": "CY", "iso_region": "CY-03", "municipality": "Güvercinlik / Acheritou", "scheduled_service": false, "icao_code": null, "iata_code": null, "gps_code": null, "local_code": null, "home_link": null, "wikipedia_link": null, "keywords": null }, "geometry": { "type": "Point", "coordinates": [ 33.861347, 35.072159, 0.0 ] } },
{ "type": "Feature", "properties": { "id": 347351, "ident": "CY-0047", "type": "heliport", "name": "UNFICYP CP10 Heliport", "latitude_deg": 35.071598, "longitude_deg": 33.965399, "elevation_ft": null, "continent": "AS", "iso_country": "CY", "iso_region": "CY-03", "municipality": "Deryneia", "scheduled_service": false, "icao_code": null, "iata_code": null, "gps_code": null, "local_code": null, "home_link": null, "wikipedia_link": null, "keywords": null }, "geometry": { "type": "Point", "coordinates": [ 33.965399, 35.071598, 0.0 ] } },
{ "type": "Feature", "properties": { "id": 347440, "ident": "CY-0050", "type": "closed", "name": "Gülseren Barracks Lakeside Heliport", "latitude_deg": 35.144454, "longitude_deg": 33.919932, "elevation_ft": null, "continent": "AS", "iso_country": "CY", "iso_region": "CY-03", "municipality": "Karakol", "scheduled_service": false, "icao_code": null, "iata_code": null, "gps_code": null, "local_code": null, "home_link": null, "wikipedia_link": null, "keywords": null }, "geometry": { "type": "Point", "coordinates": [ 33.919932, 35.144454, 0.0 ] } },
{ "type": "Feature", "properties": { "id": 347441, "ident": "CY-0051", "type": "heliport", "name": "Gülseren Barracks Central Helipad", "latitude_deg": 35.142708, "longitude_deg": 33.927836, "elevation_ft": null, "continent": "AS", "iso_country": "CY", "iso_region": "CY-03", "municipality": "Gazimağusa / Famagusta", "scheduled_service": false, "icao_code": null, "iata_code": null, "gps_code": null, "local_code": null, "home_link": null, "wikipedia_link": null, "keywords": null }, "geometry": { "type": "Point", "coordinates": [ 33.927836, 35.142708, 0.0 ] } },
{ "type": "Feature", "properties": { "id": 348340, "ident": "CY-0052", "type": "heliport", "name": "Erdemli Helipad", "latitude_deg": 35.085959, "longitude_deg": 33.614276, "elevation_ft": null, "continent": "AS", "iso_country": "CY", "iso_region": "CY-04", "municipality": "Erdemli", "scheduled_service": false, "icao_code": null, "iata_code": null, "gps_code": null, "local_code": null, "home_link": null, "wikipedia_link": null, "keywords": null }, "geometry": { "type": "Point", "coordinates": [ 33.614276, 35.085959, 0.0 ] } },
{ "type": "Feature", "properties": { "id": 348341, "ident": "CY-0053", "type": "heliport", "name": "Aslanköy Heliport", "latitude_deg": 35.207612, "longitude_deg": 33.586282, "elevation_ft": null, "continent": "AS", "iso_country": "CY", "iso_region": "CY-03", "municipality": "Angastina (Aslanköy)", "scheduled_service": false, "icao_code": null, "iata_code": null, "gps_code": null, "local_code": null, "home_link": null, "wikipedia_link": null, "keywords": null }, "geometry": { "type": "Point", "coordinates": [ 33.586282, 35.207612, 0.0 ] } },
{ "type": "Feature", "properties": { "id": 348343, "ident": "CY-0054", "type": "heliport", "name": "Aslankoy South Helipad", "latitude_deg": 35.205289, "longitude_deg": 33.584528, "elevation_ft": null, "continent": "AS", "iso_country": "CY", "iso_region": "CY-03", "municipality": "Aslankoy / Angastina", "scheduled_service": false, "icao_code": null, "iata_code": null, "gps_code": null, "local_code": null, "home_link": null, "wikipedia_link": null, "keywords": null }, "geometry": { "type": "Point", "coordinates": [ 33.584528, 35.205289, 0.0 ] } },
{ "type": "Feature", "properties": { "id": 348345, "ident": "CY-0055", "type": "heliport", "name": "Pasakoy Heliport", "latitude_deg": 35.155544, "longitude_deg": 33.604919, "elevation_ft": null, "continent": "AS", "iso_country": "CY", "iso_region": "CY-03", "municipality": "Pasakoy / Askeia", "scheduled_service": false, "icao_code": null, "iata_code": null, "gps_code": null, "local_code": null, "home_link": null, "wikipedia_link": null, "keywords": null }, "geometry": { "type": "Point", "coordinates": [ 33.604919, 35.155544, 0.0 ] } },
{ "type": "Feature", "properties": { "id": 348346, "ident": "CY-0056", "type": "heliport", "name": "Kirklar Helipad", "latitude_deg": 35.136592, "longitude_deg": 33.511078, "elevation_ft": null, "continent": "AS", "iso_country": "CY", "iso_region": "CY-02", "municipality": "Kirklar / Tymvou", "scheduled_service": false, "icao_code": null, "iata_code": null, "gps_code": null, "local_code": null, "home_link": null, "wikipedia_link": null, "keywords": null }, "geometry": { "type": "Point", "coordinates": [ 33.511078, 35.136592, 0.0 ] } },
{ "type": "Feature", "properties": { "id": 348350, "ident": "CY-0057", "type": "heliport", "name": "UNFICYP Camp General Stefanik Helipad", "latitude_deg": 35.138264, "longitude_deg": 33.915638, "elevation_ft": null, "continent": "AS", "iso_country": "CY", "iso_region": "CY-03", "municipality": "Gazimağusa / Famagusta", "scheduled_service": false, "icao_code": null, "iata_code": null, "gps_code": null, "local_code": null, "home_link": null, "wikipedia_link": null, "keywords": null }, "geometry": { "type": "Point", "coordinates": [ 33.915638, 35.138264, 0.0 ] } },
{ "type": "Feature", "properties": { "id": 348359, "ident": "CY-0060", "type": "heliport", "name": "Nicosia General Hospital Helipad", "latitude_deg": 35.128055, "longitude_deg": 33.378521, "elevation_ft": null, "continent": "AS", "iso_country": "CY", "iso_region": "CY-02", "municipality": "Agiantzia", "scheduled_service": false, "icao_code": null, "iata_code": null, "gps_code": null, "local_code": null, "home_link": null, "wikipedia_link": null, "keywords": null }, "geometry": { "type": "Point", "coordinates": [ 33.378521, 35.128055, 0.0 ] } },
{ "type": "Feature", "properties": { "id": 348360, "ident": "CY-0061", "type": "heliport", "name": "Cyprus Expo Helipad", "latitude_deg": 35.151346, "longitude_deg": 33.316221, "elevation_ft": null, "continent": "AS", "iso_country": "CY", "iso_region": "CY-02", "municipality": "Makedonitissa", "scheduled_service": false, "icao_code": null, "iata_code": null, "gps_code": null, "local_code": null, "home_link": null, "wikipedia_link": null, "keywords": null }, "geometry": { "type": "Point", "coordinates": [ 33.316221, 35.151346, 0.0 ] } },
{ "type": "Feature", "properties": { "id": 348372, "ident": "CY-0062", "type": "heliport", "name": "Gürpınar Helipad", "latitude_deg": 35.223416, "longitude_deg": 33.124436, "elevation_ft": null, "continent": "AS", "iso_country": "CY", "iso_region": "CY-02", "municipality": "Gurpinar / Agia Marina Skyllouras", "scheduled_service": false, "icao_code": null, "iata_code": null, "gps_code": null, "local_code": null, "home_link": null, "wikipedia_link": null, "keywords": null }, "geometry": { "type": "Point", "coordinates": [ 33.124436, 35.223416, 0.0 ] } },
{ "type": "Feature", "properties": { "id": 536154, "ident": "CY-0066", "type": "small_airport", "name": "Mammari Aerial Firefighting Base", "latitude_deg": 35.16884, "longitude_deg": 33.219964, "elevation_ft": null, "continent": "AS", "iso_country": "CY", "iso_region": "CY-02", "municipality": "Mammari", "scheduled_service": false, "icao_code": null, "iata_code": null, "gps_code": null, "local_code": null, "home_link": null, "wikipedia_link": null, "keywords": null }, "geometry": { "type": "Point", "coordinates": [ 33.219964, 35.16884, 0.0 ] } },
{ "type": "Feature", "properties": { "id": 348711, "ident": "CY-0080", "type": "heliport", "name": "Bogazkoy Helipad", "latitude_deg": 35.291852, "longitude_deg": 33.281325, "elevation_ft": null, "continent": "AS", "iso_country": "CY", "iso_region": "CY-01", "municipality": "Bogazkoy", "scheduled_service": false, "icao_code": null, "iata_code": null, "gps_code": null, "local_code": null, "home_link": null, "wikipedia_link": null, "keywords": null }, "geometry": { "type": "Point", "coordinates": [ 33.281325, 35.291852, 0.0 ] } },
{ "type": "Feature", "properties": { "id": 348837, "ident": "CY-0081", "type": "small_airport", "name": "Cyprus Gliding Club", "latitude_deg": 35.17626, "longitude_deg": 33.18416, "elevation_ft": null, "continent": "AS", "iso_country": "CY", "iso_region": "CY-02", "municipality": null, "scheduled_service": false, "icao_code": null, "iata_code": null, "gps_code": null, "local_code": null, "home_link": null, "wikipedia_link": null, "keywords": null }, "geometry": { "type": "Point", "coordinates": [ 33.18416, 35.17626, 0.0 ] } },
{ "type": "Feature", "properties": { "id": 349668, "ident": "CY-0084", "type": "heliport", "name": "Köprülü Heliport", "latitude_deg": 35.109818, "longitude_deg": 33.748683, "elevation_ft": null, "continent": "AS", "iso_country": "CY", "iso_region": "CY-03", "municipality": "Köprülü / Kouklia", "scheduled_service": false, "icao_code": null, "iata_code": null, "gps_code": null, "local_code": null, "home_link": null, "wikipedia_link": null, "keywords": null }, "geometry": { "type": "Point", "coordinates": [ 33.748683, 35.109818, 0.0 ] } },
{ "type": "Feature", "properties": { "id": 35128, "ident": "CY-0087", "type": "closed", "name": "Nicosia International Airport", "latitude_deg": 35.154952, "longitude_deg": 33.272855, "elevation_ft": 722, "continent": "AS", "iso_country": "CY", "iso_region": "CY-02", "municipality": "Nicosia", "scheduled_service": false, "icao_code": null, "iata_code": null, "gps_code": null, "local_code": null, "home_link": null, "wikipedia_link": "https://en.wikipedia.org/wiki/Nicosia_International_Airport", "keywords": "RAF Nicosia, Lefkosia, LCRR, LCNC, NIC, CY-NIC" }, "geometry": { "type": "Point", "coordinates": [ 33.272855, 35.154952, 722.0 ] } },
{ "type": "Feature", "properties": { "id": 30979, "ident": "LCEN", "type": "large_airport", "name": "Ercan International Airport", "latitude_deg": 35.153064, "longitude_deg": 33.507352, "elevation_ft": 404, "continent": "AS", "iso_country": "CY", "iso_region": "CY-02", "municipality": "Tymbou (Kirklar)", "scheduled_service": true, "icao_code": "LCEN", "iata_code": "ECN", "gps_code": "LCEN", "local_code": null, "home_link": null, "wikipedia_link": "https://en.wikipedia.org/wiki/Ercan_International_Airport", "keywords": "Tymvou, Nicosia, Lefkoşa" }, "geometry": { "type": "Point", "coordinates": [ 33.507352, 35.153064, 404.0 ] } },
{ "type": "Feature", "properties": { "id": 44646, "ident": "LCGK", "type": "medium_airport", "name": "Lefkoniko Airport / Geçitkale Air Base", "latitude_deg": 35.23591, "longitude_deg": 33.720088, "elevation_ft": 146, "continent": "AS", "iso_country": "CY", "iso_region": "CY-03", "municipality": "Lefkoniko (Geçitkale)", "scheduled_service": true, "icao_code": "LCGK", "iata_code": "GEC", "gps_code": "LCGK", "local_code": null, "home_link": null, "wikipedia_link": "https://en.wikipedia.org/wiki/Geçitkale_Air_Base", "keywords": "Geçitkale Air Base" }, "geometry": { "type": "Point", "coordinates": [ 33.720088, 35.23591, 146.0 ] } }
]
}
